[{"OBJECT_NAME":"STARLINK-6031","OBJECT_ID":"2023-078AV","EPOCH":"2026-03-09T23:18:26.902080","MEAN_MOTION":14.98332152,"ECCENTRICITY":0.00025154,"INCLINATION":70.0012,"RA_OF_ASC_NODE":343.6972,"ARG_OF_PERICENTER":270.1181,"MEAN_ANOMALY":89.969,"EPHEMERIS_TYPE":0,"CLASSIFICATION_TYPE":"U","NORAD_CAT_ID":56810,"ELEMENT_SET_NO":999,"REV_AT_EPOCH":15272,"BSTAR":2.14396e-6,"MEAN_MOTION_DOT":-6.7e-7,"MEAN_MOTION_DDOT":0},{"OBJECT_NAME":"FENGYUN 1C DEB","OBJECT_ID":"1999-025BBM","EPOCH":"2026-03-07T23:41:19.079232","MEAN_MOTION":14.72470246,"ECCENTRICITY":0.01607389,"INCLINATION":99.1941,"RA_OF_ASC_NODE":127.0213,"ARG_OF_PERICENTER":288.175,"MEAN_ANOMALY":194.9848,"EPHEMERIS_TYPE":0,"CLASSIFICATION_TYPE":"U","NORAD_CAT_ID":30971,"ELEMENT_SET_NO":999,"REV_AT_EPOCH":970,"BSTAR":0.00062783413,"MEAN_MOTION_DOT":4.813e-5,"MEAN_MOTION_DDOT":0}]
